METEOSAT-9 (MSG-2)      
1 28912U 05049B   18235.30228345  .00000002  00000-0  00000+0 0  9997
2 28912   3.0523  71.6751 0001009  33.1629 338.7374  1.00272991 46453
EUTELSAT 172A (GE-23)   
1 28924U 05052A   18234.70058350 -.00000006  00000-0  00000+0 0  9999
2 28924   0.0665   6.9205 0006116 143.1007 247.1386  1.00274213 46355
ECHOSTAR 10             
1 28935U 06003A   18234.64388021 -.00000072  00000-0  00000+0 0  9995
2 28935   0.0546 287.9559 0002419 179.4860 345.0607  1.00271496 45880
HIMAWARI-7 (MTSAT-2)    
1 28937U 06004A   18234.91012399 -.00000259  00000-0  00000-0 0  9998
2 28937   0.0768 300.5714 0003925 218.4090 284.8360  1.00270946 45857
SPAINSAT                
1 28945U 06007A   18234.16555218 -.00000233  00000-0  00000+0 0  9990
2 28945   0.0607 261.8844 0004154 265.5615 192.5558  1.00271150 45595
EUTELSAT HOT BIRD 13E   
1 28946U 06007B   18234.04646322  .00000070  00000-0  00000+0 0  9993
2 28946   0.0550 235.4009 0006834 286.1538 198.4615  1.00271262 45664
JCSAT-5A                
1 29045U 06010A   18234.91754131 -.00000344  00000-0  00000+0 0  9997
2 29045   0.0467 273.4898 0001916 234.6917 285.3389  1.00271697 45313
ASTRA 1KR               
1 29055U 06012A   18234.88508730  .00000104  00000-0  00000-0 0  9992
2 29055   0.0830 274.4148 0004075 270.0545 124.4717  1.00274533 17103
GOES 13                 
1 29155U 06018A   18235.24715763 -.00000299  00000-0  00000+0 0  9991
2 29155   0.0364 209.2764 0008121 214.5374 296.2620  1.00284212 44897
EUTELSAT 113 WEST A     
1 29162U 06020A   18234.39545294 -.00000054  00000-0  00000+0 0  9996
2 29162   0.0175 100.5430 0002853  57.8849 201.5760  1.00271573 44833
THAICOM 5               
1 29163U 06020B   18234.89686414 -.00000138  00000-0  00000-0 0  9996
2 29163   0.0431 272.3875 0003914 269.5136 190.5989  1.00273672 44865
GALAXY 16 (G-16)        
1 29236U 06023A   18235.00503657 -.00000143  00000-0  00000+0 0  9996
2 29236   0.0113 175.4406 0003198 338.6139  79.9917  1.00272591 44636
EUTELSAT HOT BIRD 13B   
1 29270U 06032A   18234.85537333  .00000070  00000-0  00000+0 0  9992
2 29270   0.0753 330.1277 0002333 169.5819 152.2835  1.00272518 44224
JCSAT-3A                
1 29272U 06033A   18234.90672179 -.00000361  00000-0  00000-0 0  9994
2 29272   0.0473 275.9248 0002037 219.1423 290.4870  1.00271291 19103
SYRACUSE 3B             
1 29273U 06033B   18234.88020209 -.00000060  00000-0  00000-0 0  9999
2 29273   0.0117 107.9767 0004045  30.9116 143.8868  1.00272207 44089
KOREASAT 5 (MUGUNGWHA 5)
1 29349U 06034A   18234.87590948 -.00000374  00000-0  00000+0 0  9992
2 29349   0.0103 180.7219 0002306 344.1134 234.6566  1.00270737 44009
DIRECTV 9S              
1 29494U 06043A   18234.57391705 -.00000130  00000-0  00000+0 0  9990
2 29494   0.0203 133.4872 0003440  18.8713 283.9672  1.00271829 43477
OPTUS D1                
1 29495U 06043B   18234.76212795 -.00000127  00000-0  00000+0 0  9999
2 29495   0.0527 285.7205 0003708 222.2250 257.4171  1.00272229 43512
XM-4 (BLUES)            
1 29520U 06049A   18234.42307319 -.00000039  00000-0  00000+0 0  9996
2 29520   0.0521 287.8730 0000117 337.6393 102.1720  1.00273341 43366
BADR-4                  
1 29526U 06051A   18234.84964459  .00000129  00000-0  00000+0 0  9994
2 29526   0.0593 313.2939 0001070 213.0610 136.6227  1.00275986 43253
FENGYUN 2D              
1 29640U 06053A   18234.91218420 -.00000378  00000-0  10000-3 0  9993
2 29640   5.2346  62.3066 0005324 288.3400  72.1773  1.00259287 42934
WILDBLUE-1              
1 29643U 06054A   18234.60329176 -.00000066  00000-0  00000+0 0  9993
2 29643   0.0563 274.2190 0002006 231.1883 291.4458  1.00272252 42919
AMC-18                  
1 29644U 06054B   18234.34340649  .00000088  00000-0  00000+0 0  9996
2 29644   0.0783 281.4786 0002591 195.4629 198.2678  1.00271502 42919
MEASAT-3                
1 29648U 06056A   18234.89948122 -.00000258  00000-0  00000-0 0  9993
2 29648   0.0250 164.3501 0004105 346.4864 235.6079  1.00269637 21833
INSAT-4B                
1 30793U 07007A   18235.60669581 -.00000370  00000-0  00000+0 0  9996
2 30793   0.0794 278.1914 0003498 226.4182 156.9788  1.00272491 41932
SKYNET 5A               
1 30794U 07007B   18234.90017911 -.00000288  00000-0  00000-0 0  9992
2 30794   0.0682 355.0602 0004358 174.3421 221.0011  1.00271406 42064
ANIK F3                 
1 31102U 07009A   18234.64213549 -.00000017  00000-0  00000+0 0  9993
2 31102   0.0136 109.9207 0002114  24.0663 309.3496  1.00271696 41704
ASTRA 1L                
1 31306U 07016A   18234.88508730  .00000104  00000-0  00000+0 0  9998
2 31306   0.0911 292.6885 0001621 264.9217 111.3358  1.00273514 41401
GALAXY 17 (G-17)        
1 31307U 07016B   18234.86310388 -.00000190  00000-0  00000-0 0  9994
2 31307   0.0351 354.5429 0003710 157.1362  39.1411  1.00272304 41321
ZHONGXING-6B            
1 31800U 07031A   18234.97250701 -.00000378  00000-0  00000+0 0  9990
2 31800   0.0251 126.5808 0003179  29.3296 280.9182  1.00269852 40842
DIRECTV 10              
1 31862U 07032A   18234.36730293 -.00000119  00000-0  00000+0 0  9994
2 31862   0.0162 280.1070 0000275 276.2208 163.6713  1.00271139 40779
SPACEWAY 3              
1 32018U 07036A   18235.00582170 -.00000168  00000-0  00000+0 0  9997
2 32018   0.0051 287.4219 0000377 183.1555 127.7941  1.00272279 40498
BSAT-3A                 
1 32019U 07036B   18234.77530530 -.00000367  00000-0  00000+0 0  9995
2 32019   0.0716 249.4773 0004193 299.8095 170.6976  1.00272278 40432
INSAT-4CR               
1 32050U 07037A   18235.53691359  .00000109  00000-0  00000+0 0  9996
2 32050   0.1440 100.9913 0002746  86.3979  25.5130  1.00273336 40224
OPTUS D2                
1 32252U 07044A   18234.91151977 -.00000200  00000-0  00000-0 0  9990
2 32252   0.0596 284.4653 0003889 225.5373 301.2912  1.00271197 39944
INTELSAT 11 (IS-11)     
1 32253U 07044B   18234.91022649 -.00000285  00000-0  00000+0 0  9996
2 32253   0.0626 259.0894 0001783 268.3840  88.3604  1.00270730 39896
STAR ONE C1             
1 32293U 07056A   18234.26252273 -.00000293  00000-0  00000+0 0  9998
2 32293   0.0168 100.3784 0003087  62.5634 197.0603  1.00269976 39472
SKYNET 5B               
1 32294U 07056B   18234.91077076  .00000126  00000-0  00000+0 0  9991
2 32294   0.0745 358.7910 0003765 166.1863 159.1640  1.00275943 39563
ASTRA 4A (SIRIUS 4)     
1 32299U 07057A   18235.04836611  .00000016  00000-0  00000+0 0  9998
2 32299   0.0462 296.4425 0003088 212.2728 204.7918  1.00272984 39325
HORIZONS-2              
1 32388U 07063B   18234.89817269 -.00000199  00000-0  00000-0 0  9998
2 32388   0.0174 105.8078 0003096  35.4977 238.0169  1.00271958 39228
THURAYA-3               
1 32404U 08001A   18234.90087699 -.00000311  00000-0  00000+0 0  9993
2 32404   3.8846 359.0198 0004972 148.0023 246.9336  1.00273143 38903
EXPRESS-AM33            
1 32478U 08003A   18234.11069477 -.00000297  00000-0  00000-0 0  9997
2 32478   0.0450 276.9996 0000676 359.3224 190.3724  1.00271196 38970
THOR 5                  
1 32487U 08006A   18234.84007587 -.00000025  00000-0  00000+0 0  9992
2 32487   0.0486 264.9302 0002574 244.6439 123.1747  1.00272827 38544
KIZUNA (WINDS)          
1 32500U 08007A   18234.90977507 -.00000276  00000-0  00000-0 0  9993
2 32500   1.7540  87.8001 0002247  71.4157 282.4495  1.00270413 38264
AMC-14                  
1 32708U 08011A   18234.64018470  .00000077  00000-0  00000+0 0  9991
2 32708  19.8731  56.5240 0038086   5.4444 157.3919  1.00271484 39463
DIRECTV 11              
1 32729U 08013A   18234.72271508 -.00000142  00000-0  00000+0 0  9992
2 32729   0.0036  50.2147 0000270  83.4219 358.3115  1.00273058 38305
ICO G1                  
1 32763U 08016A   18234.49238479 -.00000185  00000-0  00000+0 0  9994
2 32763   3.6885   1.0395 0002447 163.1693 250.9416  1.00272177 37832
VINASAT-1               
1 32767U 08018A   18234.71420095 -.00000345  00000-0  00000+0 0  9990
2 32767   0.0158 284.4702 0002054 232.4219 203.1172  1.00268763 37977
STAR ONE C2             
1 32768U 08018B   18234.27633384 -.00000282  00000-0  00000+0 0  9999
2 32768   0.0298 128.3278 0003116  45.4068 186.2609  1.00273307 37911
TIANLIAN 1-01           
1 32779U 08019A   18234.90604877 -.00000156  00000-0  10000-3 0  9992
2 32779   2.7291  74.0172 0030718 236.2762  67.1754  1.00271462 37833
AMOS-3                  
1 32794U 08022A   18234.88037657 -.00000052  00000-0  00000-0 0  9997
2 32794   0.0546 262.8908 0001441 209.0749 171.9665  1.00271665 53751
GALAXY 18 (G-18)        
1 32951U 08024A   18234.42322564  .00000009  00000-0  00000+0 0  9998
2 32951   0.0153 143.2393 0003205   2.9068 213.8743  1.00271611 37457
CHINASAT 9 (ZX 9)       
1 33051U 08028A   18233.06463495 -.00000265  00000-0  00000-0 0  9998
2 33051   0.0126 148.1195 0004270 358.1563 298.5332  1.00270881 37364
SKYNET 5C               
1 33055U 08030A   18234.87767226 -.00000156  00000-0  00000-0 0  9993
2 33055   0.0601   6.6243 0005211 157.4517 105.1923  1.00272473 37327
TURKSAT 3A              
1 33056U 08030B   18234.88962356  .00000130  00000-0  00000+0 0  9996
2 33056   0.0357  87.2399 0005682  48.4830 197.6438  1.00272154 37448
INTELSAT 25 (IS-25)     
1 33153U 08034A   18234.16965351 -.00000241  00000-0  00000+0 0  9991
2 33153   0.0304 231.7733 0001822 315.4500 172.7655  1.00272053 37004
BADR-6                  
1 33154U 08034B   18234.85005631  .00000128  00000-0  00000+0 0  9997
2 33154   0.0586  49.4574 0003993  74.8794 178.7432  1.00272325 37119
ECHOSTAR 11             
1 33207U 08035A   18234.38716741 -.00000073  00000-0  00000+0 0  9996
2 33207   0.0685 278.3885 0002856 222.0359 219.5881  1.00272001 37020
SUPERBIRD-C2            
1 33274U 08038A   18234.90994953 -.00000267  00000-0  00000-0 0  9990
2 33274   0.0339 255.6326 0002023 266.4357 280.5982  1.00273035 77093
